[{"OBJECT_NAME":"OBJECT H","OBJECT_ID":"2023-091H","EPOCH":"2026-03-09T22:34:46.487712","MEAN_MOTION":15.26380881,"ECCENTRICITY":0.00117854,"INCLINATION":97.5166,"RA_OF_ASC_NODE":131.4381,"ARG_OF_PERICENTER":104.1062,"MEAN_ANOMALY":256.1487,"EPHEMERIS_TYPE":0,"CLASSIFICATION_TYPE":"U","NORAD_CAT_ID":57173,"ELEMENT_SET_NO":999,"REV_AT_EPOCH":14915,"BSTAR":0.00056321781,"MEAN_MOTION_DOT":0.00014617,"MEAN_MOTION_DDOT":0},{"OBJECT_NAME":"STARLINK-31512","OBJECT_ID":"2024-071S","EPOCH":"2026-03-09T23:12:34.001280","MEAN_MOTION":15.27591415,"ECCENTRICITY":0.0001473,"INCLINATION":43.0022,"RA_OF_ASC_NODE":298.0292,"ARG_OF_PERICENTER":263.0766,"MEAN_ANOMALY":96.9918,"EPHEMERIS_TYPE":0,"CLASSIFICATION_TYPE":"U","NORAD_CAT_ID":59500,"ELEMENT_SET_NO":999,"REV_AT_EPOCH":10870,"BSTAR":-0.00010707348,"MEAN_MOTION_DOT":-3.208e-5,"MEAN_MOTION_DDOT":0}]
